IRIDIUM 126             
1 42809U 17039G   25256.02808819  .00000344  00000+0  11578-3 0  9994
2 42809  86.3934 109.5316 0002026  92.0711 268.0717 14.34217882430225
IRIDIUM 124             
1 42810U 17039H   25255.65971359  .00000346  00000+0  96788-4 0  9993
2 42810  86.4474  46.3656 0002261  89.5225 270.6235 14.43276618435089
IRIDIUM 128             
1 42811U 17039J   25256.08859705  .00000023  00000+0  10794-5 0  9998
2 42811  86.4005 141.0139 0002457  79.4223 280.7250 14.34217897430260
IRIDIUM 121             
1 42812U 17039K   25255.55873492  .00000182  00000+0  57970-4 0  9991
2 42812  86.3935 109.7537 0002191  83.8631 276.2814 14.34219159430036
IRIDIUM 133             
1 42955U 17061A   25255.98077139  .00000153  00000+0  47697-4 0  9998
2 42955  86.4005 141.1695 0002196  84.1087 276.0360 14.34217335415044
IRIDIUM 100             
1 42956U 17061B   25255.62558727  .00000071  00000+0  18186-4 0  9997
2 42956  86.4005 141.2431 0002247  87.6286 272.5167 14.34217684414996
IRIDIUM 122             
1 42957U 17061C   25255.66364123  .00000200  00000+0  64520-4 0  9994
2 42957  86.4004 141.2266 0002160  85.7242 274.4201 14.34219411415000
IRIDIUM 129             
1 42958U 17061D   25255.96808607  .00000171  00000+0  54173-4 0  9998
2 42958  86.4007 141.1636 0001717  86.8747 273.2645 14.34217559415069
